{
    "links": {
        "self": "http://www.neowsapp.com/rest/v1/neo/3389363?api_key=iIulBulltgU6a56xZRHN4H3l9WmuAYTsLGpBGhQ2"
    },
    "id": "3389363",
    "neo_reference_id": "3389363",
    "name": "(2007 UU3)",
    "designation": "2007 UU3",
    "nasa_jpl_url": "http://ssd.jpl.nasa.gov/sbdb.cgi?sstr=3389363",
    "absolute_magnitude_h": 23.8,
    "estimated_diameter": {
        "kilometers": {
            "estimated_diameter_min": 0.046190746,
            "estimated_diameter_max": 0.1032856481
        },
        "meters": {
            "estimated_diameter_min": 46.1907460282,
            "estimated_diameter_max": 103.2856480504
        },
        "miles": {
            "estimated_diameter_min": 0.0287015901,
            "estimated_diameter_max": 0.0641787064
        },
        "feet": {
            "estimated_diameter_min": 151.544447199,
            "estimated_diameter_max": 338.8636855496
        }
    },
    "is_potentially_hazardous_asteroid": false,
    "close_approach_data": [
        {
            "close_approach_date": "2007-10-25",
            "close_approach_date_full": "2007-Oct-25 01:42",
            "epoch_date_close_approach": 1193276520000,
            "relative_velocity": {
                "kilometers_per_second": "10.2856347967",
                "kilometers_per_hour": "37028.2852681841",
                "miles_per_hour": "23007.936476778"
            },
            "miss_distance": {
                "astronomical": "0.0498711853",
                "lunar": "19.3998910817",
                "kilometers": "7460623.095255311",
                "miles": "4635816.2257368518"
            },
            "orbiting_body": "Earth"
        }
    ],
    "orbital_data": {
        "orbit_id": "10",
        "orbit_determination_date": "2017-04-06 09:05:33",
        "first_observation_date": "2007-10-19",
        "last_observation_date": "2007-10-29",
        "data_arc_in_days": 10,
        "observations_used": 20,
        "orbit_uncertainty": "8",
        "minimum_orbit_intersection": ".026106",
        "jupiter_tisserand_invariant": "3.822",
        "epoch_osculation": "2454395.5",
        "eccentricity": ".5016901693436021",
        "semi_major_axis": "1.86754372648028",
        "inclination": "2.449780066440566",
        "ascending_node_longitude": "180.9304087650382",
        "orbital_period": "932.1903344402348",
        "perihelion_distance": ".9306153980858066",
        "perihelion_argument": "254.0707463148658",
        "aphelion_distance": "2.804472054874754",
        "perihelion_time": "2454431.432267796944",
        "mean_anomaly": "346.1234171509969",
        "mean_motion": ".3861872266849604",
        "equinox": "J2000",
        "orbit_class": {
            "orbit_class_type": "APO",
            "orbit_class_description": "Near-Earth asteroid orbits which cross the Earth’s orbit similar to that of 1862 Apollo",
            "orbit_class_range": "a (semi-major axis) > 1.0 AU; q (perihelion) < 1.017 AU"
        }
    },
    "is_sentry_object": false
}